[{"OBJECT_NAME":"STARLINK-1265","OBJECT_ID":"2020-019AY","EPOCH":"2026-01-03T10:10:50.395296","MEAN_MOTION":15.06415673,"ECCENTRICITY":0.0001446,"INCLINATION":53.0544,"RA_OF_ASC_NODE":69.6035,"ARG_OF_PERICENTER":95.0863,"MEAN_ANOMALY":265.0291,"EPHEMERIS_TYPE":0,"CLASSIFICATION_TYPE":"U","NORAD_CAT_ID":45406,"ELEMENT_SET_NO":999,"REV_AT_EPOCH":32002,"BSTAR":0.00076513,"MEAN_MOTION_DOT":0.00011138,"MEAN_MOTION_DDOT":0},{"OBJECT_NAME":"STARLINK-1278","OBJECT_ID":"2020-019BA","EPOCH":"2026-01-03T11:52:45.066720","MEAN_MOTION":15.43548076,"ECCENTRICITY":0.0003714,"INCLINATION":53.0519,"RA_OF_ASC_NODE":82.8691,"ARG_OF_PERICENTER":261.2574,"MEAN_ANOMALY":98.8011,"EPHEMERIS_TYPE":0,"CLASSIFICATION_TYPE":"U","NORAD_CAT_ID":45408,"ELEMENT_SET_NO":999,"REV_AT_EPOCH":31985,"BSTAR":0.0025672,"MEAN_MOTION_DOT":0.00118477,"MEAN_MOTION_DDOT":0},{"OBJECT_NAME":"STARLINK-1296","OBJECT_ID":"2020-019BE","EPOCH":"2026-01-03T10:16:08.863968","MEAN_MOTION":15.06410157,"ECCENTRICITY":0.0001491,"INCLINATION":53.0558,"RA_OF_ASC_NODE":69.5877,"ARG_OF_PERICENTER":114.1891,"MEAN_ANOMALY":245.9254,"EPHEMERIS_TYPE":0,"CLASSIFICATION_TYPE":"U","NORAD_CAT_ID":45412,"ELEMENT_SET_NO":999,"REV_AT_EPOCH":32002,"BSTAR":0.00091219,"MEAN_MOTION_DOT":0.00013335,"MEAN_MOTION_DDOT":0},{"OBJECT_NAME":"STARLINK-1298","OBJECT_ID":"2020-019BF","EPOCH":"2026-01-03T14:00:01.999872","MEAN_MOTION":15.67441669,"ECCENTRICITY":0.0005378,"INCLINATION":53.0418,"RA_OF_ASC_NODE":20.9911,"ARG_OF_PERICENTER":75.6911,"MEAN_ANOMALY":95.2854,"EPHEMERIS_TYPE":0,"CLASSIFICATION_TYPE":"U","NORAD_CAT_ID":45413,"ELEMENT_SET_NO":999,"REV_AT_EPOCH":595,"BSTAR":0.0017248,"MEAN_MOTION_DOT":0.0019447,"MEAN_MOTION_DDOT":0},{"OBJECT_NAME":"STARLINK-1309","OBJECT_ID":"2020-019BG","EPOCH":"2026-01-03T10:37:22.819872","MEAN_MOTION":15.06420239,"ECCENTRICITY":0.0001331,"INCLINATION":53.0545,"RA_OF_ASC_NODE":69.5239,"ARG_OF_PERICENTER":96.5609,"MEAN_ANOMALY":263.5532,"EPHEMERIS_TYPE":0,"CLASSIFICATION_TYPE":"U","NORAD_CAT_ID":45414,"ELEMENT_SET_NO":999,"REV_AT_EPOCH":32001,"BSTAR":0.0010377,"MEAN_MOTION_DOT":0.00015217,"MEAN_MOTION_DDOT":0},{"OBJECT_NAME":"STARLINK-1316","OBJECT_ID":"2020-019BH","EPOCH":"2026-01-03T11:14:32.764992","MEAN_MOTION":15.06401964,"ECCENTRICITY":0.0001525,"INCLINATION":53.0564,"RA_OF_ASC_NODE":69.41,"ARG_OF_PERICENTER":95.0496,"MEAN_ANOMALY":265.0667,"EPHEMERIS_TYPE":0,"CLASSIFICATION_TYPE":"U","NORAD_CAT_ID":45415,"ELEMENT_SET_NO":999,"REV_AT_EPOCH":32005,"BSTAR":0.00022684,"MEAN_MOTION_DOT":3.099e-5,"MEAN_MOTION_DDOT":0},{"OBJECT_NAME":"STARLINK-1318","OBJECT_ID":"2020-019BJ","EPOCH":"2026-01-03T14:00:01.999872","MEAN_MOTION":15.74573866,"ECCENTRICITY":0.0004715,"INCLINATION":53.0442,"RA_OF_ASC_NODE":9.2075,"ARG_OF_PERICENTER":57.674,"MEAN_ANOMALY":31.8023,"EPHEMERIS_TYPE":0,"CLASSIFICATION_TYPE":"U","NORAD_CAT_ID":45416,"ELEMENT_SET_NO":999,"REV_AT_EPOCH":600,"BSTAR":0.00094019,"MEAN_MOTION_DOT":0.00141833,"MEAN_MOTION_DDOT":0},{"OBJECT_NAME":"STARLINK-1286","OBJECT_ID":"2020-019BK","EPOCH":"2026-01-03T11:00:26.576352","MEAN_MOTION":15.44010448,"ECCENTRICITY":0.0001822,"INCLINATION":53.0524,"RA_OF_ASC_NODE":82.7492,"ARG_OF_PERICENTER":297.8439,"MEAN_ANOMALY":62.2382,"EPHEMERIS_TYPE":0,"CLASSIFICATION_TYPE":"U","NORAD_CAT_ID":45417,"ELEMENT_SET_NO":999,"REV_AT_EPOCH":32012,"BSTAR":0.00089793,"MEAN_MOTION_DOT":0.00041394,"MEAN_MOTION_DDOT":0},{"OBJECT_NAME":"STARLINK-1308","OBJECT_ID":"2020-019BM","EPOCH":"2026-01-03T12:03:18.205056","MEAN_MOTION":15.06863654,"ECCENTRICITY":0.0004635,"INCLINATION":53.0554,"RA_OF_ASC_NODE":99.2535,"ARG_OF_PERICENTER":156.7927,"MEAN_ANOMALY":203.3272,"EPHEMERIS_TYPE":0,"CLASSIFICATION_TYPE":"U","NORAD_CAT_ID":45419,"ELEMENT_SET_NO":999,"REV_AT_EPOCH":31964,"BSTAR":0.0087425,"MEAN_MOTION_DOT":0.00134125,"MEAN_MOTION_DDOT":0},{"OBJECT_NAME":"STARLINK-1329","OBJECT_ID":"2020-025A","EPOCH":"2026-01-03T14:00:01.999872","MEAN_MOTION":15.43948659,"ECCENTRICITY":0.0003685,"INCLINATION":53.0541,"RA_OF_ASC_NODE":33.5426,"ARG_OF_PERICENTER":33.4099,"MEAN_ANOMALY":75.5569,"EPHEMERIS_TYPE":0,"CLASSIFICATION_TYPE":"U","NORAD_CAT_ID":45531,"ELEMENT_SET_NO":999,"REV_AT_EPOCH":583,"BSTAR":0.003065,"MEAN_MOTION_DOT":0.00143941,"MEAN_MOTION_DDOT":0},{"OBJECT_NAME":"STARLINK-1338","OBJECT_ID":"2020-025B","EPOCH":"2026-01-03T14:00:01.999872","MEAN_MOTION":15.41882936,"ECCENTRICITY":0.0001489,"INCLINATION":53.0535,"RA_OF_ASC_NODE":36.2934,"ARG_OF_PERICENTER":73.0954,"MEAN_ANOMALY":10.4833,"EPHEMERIS_TYPE":0,"CLASSIFICATION_TYPE":"U","NORAD_CAT_ID":45532,"ELEMENT_SET_NO":999,"REV_AT_EPOCH":583,"BSTAR":0.0026569,"MEAN_MOTION_DOT":0.00115896,"MEAN_MOTION_DDOT":0},{"OBJECT_NAME":"STARLINK-1350","OBJECT_ID":"2020-025E","EPOCH":"2026-01-03T02:28:19.403904","MEAN_MOTION":15.34264719,"ECCENTRICITY":0.00020999,"INCLINATION":53.0752,"RA_OF_ASC_NODE":340.73,"ARG_OF_PERICENTER":85.1067,"MEAN_ANOMALY":275.0174,"EPHEMERIS_TYPE":0,"CLASSIFICATION_TYPE":"U","NORAD_CAT_ID":45535,"ELEMENT_SET_NO":999,"REV_AT_EPOCH":31608,"BSTAR":0.00056542374,"MEAN_MOTION_DOT":0.00018695,"MEAN_MOTION_DDOT":0},{"OBJECT_NAME":"STARLINK-1362","OBJECT_ID":"2020-025H","EPOCH":"2026-01-03T09:09:43.540416","MEAN_MOTION":15.06401678,"ECCENTRICITY":0.0001413,"INCLINATION":53.0553,"RA_OF_ASC_NODE":39.5175,"ARG_OF_PERICENTER":89.3291,"MEAN_ANOMALY":270.786,"EPHEMERIS_TYPE":0,"CLASSIFICATION_TYPE":"U","NORAD_CAT_ID":45538,"ELEMENT_SET_NO":999,"REV_AT_EPOCH":31525,"BSTAR":0.00071619,"MEAN_MOTION_DOT":0.00010403,"MEAN_MOTION_DDOT":0},{"OBJECT_NAME":"STARLINK-1368","OBJECT_ID":"2020-025K","EPOCH":"2026-01-03T09:16:26.294880","MEAN_MOTION":15.06402008,"ECCENTRICITY":0.0001369,"INCLINATION":53.0551,"RA_OF_ASC_NODE":39.7782,"ARG_OF_PERICENTER":96.8461,"MEAN_ANOMALY":263.2684,"EPHEMERIS_TYPE":0,"CLASSIFICATION_TYPE":"U","NORAD_CAT_ID":45540,"ELEMENT_SET_NO":999,"REV_AT_EPOCH":31524,"BSTAR":0.00018182,"MEAN_MOTION_DOT":2.428e-5,"MEAN_MOTION_DDOT":0},{"OBJECT_NAME":"STARLINK-1371","OBJECT_ID":"2020-025M","EPOCH":"2026-01-03T14:00:01.999872","MEAN_MOTION":15.28091988,"ECCENTRICITY":0.0001223,"INCLINATION":53.0552,"RA_OF_ASC_NODE":38.0391,"ARG_OF_PERICENTER":66.942,"MEAN_ANOMALY":160.9762,"EPHEMERIS_TYPE":0,"CLASSIFICATION_TYPE":"U","NORAD_CAT_ID":45542,"ELEMENT_SET_NO":999,"REV_AT_EPOCH":573,"BSTAR":0.036209,"MEAN_MOTION_DOT":0.01085233,"MEAN_MOTION_DDOT":0},{"OBJECT_NAME":"STARLINK-1372","OBJECT_ID":"2020-025N","EPOCH":"2026-01-03T09:27:03.282336","MEAN_MOTION":15.06402321,"ECCENTRICITY":0.0001499,"INCLINATION":53.0566,"RA_OF_ASC_NODE":39.7437,"ARG_OF_PERICENTER":98.2513,"MEAN_ANOMALY":261.8646,"EPHEMERIS_TYPE":0,"CLASSIFICATION_TYPE":"U","NORAD_CAT_ID":45543,"ELEMENT_SET_NO":999,"REV_AT_EPOCH":31434,"BSTAR":5.8156e-5,"MEAN_MOTION_DOT":5.85e-6,"MEAN_MOTION_DDOT":0},{"OBJECT_NAME":"STARLINK-1373","OBJECT_ID":"2020-025P","EPOCH":"2026-01-03T14:00:01.999872","MEAN_MOTION":15.23618539,"ECCENTRICITY":0.0001504,"INCLINATION":53.0552,"RA_OF_ASC_NODE":38.3505,"ARG_OF_PERICENTER":88.3729,"MEAN_ANOMALY":39.6621,"EPHEMERIS_TYPE":0,"CLASSIFICATION_TYPE":"U","NORAD_CAT_ID":45544,"ELEMENT_SET_NO":999,"REV_AT_EPOCH":583,"BSTAR":0.063451,"MEAN_MOTION_DOT":0.01678719,"MEAN_MOTION_DDOT":0},{"OBJECT_NAME":"STARLINK-1294","OBJECT_ID":"2020-025W","EPOCH":"2026-01-03T14:00:01.999872","MEAN_MOTION":15.73563087,"ECCENTRICITY":0.0003091,"INCLINATION":53.0423,"RA_OF_ASC_NODE":304.7032,"ARG_OF_PERICENTER":144.6914,"MEAN_ANOMALY":293.0615,"EPHEMERIS_TYPE":0,"CLASSIFICATION_TYPE":"U","NORAD_CAT_ID":45551,"ELEMENT_SET_NO":999,"REV_AT_EPOCH":597,"BSTAR":0.00063556,"MEAN_MOTION_DOT":0.0009099,"MEAN_MOTION_DDOT":0},{"OBJECT_NAME":"STARLINK-1325","OBJECT_ID":"2020-025Z","EPOCH":"2026-01-03T14:00:01.999872","MEAN_MOTION":15.87542976,"ECCENTRICITY":0.0009577,"INCLINATION":53.0468,"RA_OF_ASC_NODE":294.022,"ARG_OF_PERICENTER":111.3099,"MEAN_ANOMALY":139.6272,"EPHEMERIS_TYPE":0,"CLASSIFICATION_TYPE":"U","NORAD_CAT_ID":45554,"ELEMENT_SET_NO":999,"REV_AT_EPOCH":567,"BSTAR":0.001295,"MEAN_MOTION_DOT":0.0036657,"MEAN_MOTION_DDOT":0},{"OBJECT_NAME":"STARLINK-1327","OBJECT_ID":"2020-025AA","EPOCH":"2026-01-03T14:00:01.999872","MEAN_MOTION":15.32077598,"ECCENTRICITY":0.0001361,"INCLINATION":53.053,"RA_OF_ASC_NODE":17.6868,"ARG_OF_PERICENTER":58.902,"MEAN_ANOMALY":200.6303,"EPHEMERIS_TYPE":0,"CLASSIFICATION_TYPE":"U","NORAD_CAT_ID":45555,"ELEMENT_SET_NO":999,"REV_AT_EPOCH":582,"BSTAR":0.049803,"MEAN_MOTION_DOT":0.01734866,"MEAN_MOTION_DDOT":0},{"OBJECT_NAME":"STARLINK-1356","OBJECT_ID":"2020-025AK","EPOCH":"2026-01-03T07:43:33.151872","MEAN_MOTION":15.06404838,"ECCENTRICITY":0.0001419,"INCLINATION":53.0556,"RA_OF_ASC_NODE":20.0641,"ARG_OF_PERICENTER":86.1761,"MEAN_ANOMALY":273.939,"EPHEMERIS_TYPE":0,"CLASSIFICATION_TYPE":"U","NORAD_CAT_ID":45564,"ELEMENT_SET_NO":999,"REV_AT_EPOCH":31551,"BSTAR":0.00029243,"MEAN_MOTION_DOT":4.077e-5,"MEAN_MOTION_DDOT":0},{"OBJECT_NAME":"STARLINK-1357","OBJECT_ID":"2020-025AL","EPOCH":"2026-01-03T14:00:01.999872","MEAN_MOTION":15.43544058,"ECCENTRICITY":0.0003177,"INCLINATION":53.0595,"RA_OF_ASC_NODE":349.8998,"ARG_OF_PERICENTER":51.0371,"MEAN_ANOMALY":146.403,"EPHEMERIS_TYPE":0,"CLASSIFICATION_TYPE":"U","NORAD_CAT_ID":45565,"ELEMENT_SET_NO":999,"REV_AT_EPOCH":571,"BSTAR":0.0023614,"MEAN_MOTION_DOT":0.00108786,"MEAN_MOTION_DDOT":0},{"OBJECT_NAME":"STARLINK-1361","OBJECT_ID":"2020-025AN","EPOCH":"2026-01-03T09:45:38.470464","MEAN_MOTION":15.06398844,"ECCENTRICITY":0.0001236,"INCLINATION":53.058,"RA_OF_ASC_NODE":19.6884,"ARG_OF_PERICENTER":84.536,"MEAN_ANOMALY":275.577,"EPHEMERIS_TYPE":0,"CLASSIFICATION_TYPE":"U","NORAD_CAT_ID":45567,"ELEMENT_SET_NO":999,"REV_AT_EPOCH":31553,"BSTAR":0.00029922,"MEAN_MOTION_DOT":4.178e-5,"MEAN_MOTION_DDOT":0}]
